[{"OBJECT_NAME":"KUIPER-00122","OBJECT_ID":"2025-228E","EPOCH":"2026-03-09T04:27:26.949312","MEAN_MOTION":14.79691168,"ECCENTRICITY":0.00011174,"INCLINATION":51.9018,"RA_OF_ASC_NODE":5.296,"ARG_OF_PERICENTER":77.3299,"MEAN_ANOMALY":282.7789,"EPHEMERIS_TYPE":0,"CLASSIFICATION_TYPE":"U","NORAD_CAT_ID":65951,"ELEMENT_SET_NO":999,"REV_AT_EPOCH":2312,"BSTAR":0.00094193825,"MEAN_MOTION_DOT":6.926e-5,"MEAN_MOTION_DDOT":0},{"OBJECT_NAME":"CZ-6A DEB","OBJECT_ID":"2022-151QP","EPOCH":"2026-03-09T02:57:40.392288","MEAN_MOTION":14.90154105,"ECCENTRICITY":0.00458103,"INCLINATION":98.6088,"RA_OF_ASC_NODE":136.2447,"ARG_OF_PERICENTER":198.9434,"MEAN_ANOMALY":161.0079,"EPHEMERIS_TYPE":0,"CLASSIFICATION_TYPE":"U","NORAD_CAT_ID":54902,"ELEMENT_SET_NO":999,"REV_AT_EPOCH":17583,"BSTAR":0.0048981783,"MEAN_MOTION_DOT":0.00048606,"MEAN_MOTION_DDOT":0}]
